SPAWAR-CAL-O            
1 43766U 18099J   26068.73975788  .00021069  00000+0  69663-3 0  9999
2 43766  97.4452 132.0993 0007239 285.0670  74.9770 15.31356755398280
STARLINK-32810          
1 63037U 25034J   26068.81405549  .00031309  00000+0  10648-2 0  9997
2 63037  53.1580 257.7044 0000840  97.7827 262.3269 15.30198249 59101
